OBJECT_NAME,OBJECT_ID,EPOCH,MEAN_MOTION,ECCENTRICITY,INCLINATION,RA_OF_ASC_NODE,ARG_OF_PERICENTER,MEAN_ANOMALY,EPHEMERIS_TYPE,CLASSIFICATION_TYPE,NORAD_CAT_ID,ELEMENT_SET_NO,REV_AT_EPOCH,BSTAR,MEAN_MOTION_DOT,MEAN_MOTION_DDOT
KUIPER-00189,2026-072B,2026-05-15T06:00:02.000160,14.81970039,.00006507,51.8988,343.1857,193.2860,207.2541,0,U,68574,999,552,-.44062961E-2,-.35308E-3,0
KUIPER-00192,2026-072C,2026-05-15T06:00:02.000160,14.98152799,.00054249,51.9181,339.3323,287.3308,12.9552,0,U,68575,999,593,-.28797003E-2,-.3461E-3,0
KUIPER-00193,2026-072D,2026-05-14T00:10:15.337344,15.38272913,.00037478,51.8783,342.1010,231.9231,128.1419,0,U,68576,999,612,.46747569E-3,.17558E-3,0
KUIPER-00194,2026-072E,2026-05-15T06:00:02.000160,15.08651236,.00030774,51.8894,337.7614,249.4017,91.0819,0,U,68577,999,499,-.23595698E-2,-.37487E-3,0
KUIPER-00229,2026-072F,2026-05-15T06:00:02.000160,14.88284697,.0008442,51.8965,340.8658,277.9124,3.4894,0,U,68578,999,583,-.94420071E-2,-.87334E-3,0
KUIPER-00230,2026-072G,2026-05-14T00:01:12.485280,15.37308207,.00020538,51.8771,342.0572,249.8506,110.2260,0,U,68579,999,612,.65970296E-3,.24181E-3,0
KUIPER-00231,2026-072H,2026-05-13T20:49:05.763648,15.38801624,.00023354,51.8769,342.6665,224.4891,135.5909,0,U,68580,999,610,.50507555E-3,.1934E-3,0
KUIPER-00234,2026-072J,2026-05-15T06:00:02.000160,15.14406548,.00026306,51.8884,337.1868,304.2858,238.5123,0,U,68581,999,354,-.38125051E-1,-.664111E-2,0
KUIPER-00236,2026-072K,2026-05-13T14:42:21.234528,15.36487396,.0002622,51.8772,343.9598,206.6669,153.4183,0,U,68582,999,606,.4185902E-3,.14778E-3,0
KUIPER-00244,2026-072L,2026-05-14T00:01:11.661888,15.38580236,.00029233,51.8767,342.0618,240.9192,119.1503,0,U,68583,999,612,.82059067E-3,.31492E-3,0
KUIPER-00253,2026-072M,2026-05-14T14:21:15.050304,15.38094887,.00040056,51.8730,339.3023,244.8352,115.2220,0,U,68584,999,621,.64677337E-3,.24324E-3,0
KUIPER-00254,2026-072N,2026-05-15T06:00:02.000160,15.29951740,.00072484,51.8769,336.3966,264.7111,330.3718,0,U,68585,999,543,-.44421162E-1,-.1188378E-1,0
KUIPER-00263,2026-072P,2026-05-13T14:36:51.745536,15.37513676,.00013327,51.8779,343.9343,194.2371,165.8578,0,U,68586,999,606,.43755379E-3,.15997E-3,0
KUIPER-00269,2026-072Q,2026-05-13T21:05:19.355136,15.38254796,.00037653,51.8765,342.7353,232.9803,127.0840,0,U,68587,999,610,.4472569E-3,.16769E-3,0
KUIPER-00272,2026-072R,2026-05-15T06:00:02.000160,14.95084166,.00064121,51.8969,339.3441,276.0985,242.7632,0,U,68588,999,583,-.61579162E-2,-.67815E-3,0
KUIPER-00285,2026-072S,2026-05-14T06:36:38.130912,15.38032020,.00062247,51.8754,340.8917,249.0157,111.0165,0,U,68589,999,616,.57511192E-3,.21539E-3,0
KUIPER-00286,2026-072T,2026-05-15T04:12:44.436384,15.38396308,.00035003,51.8748,336.4250,247.6529,112.4087,0,U,68590,999,630,.47564327E-3,.17945E-3,0
KUIPER-00289,2026-072U,2026-05-14T21:29:50.827488,15.36584336,.00105361,51.8662,338.2662,267.1094,92.8686,0,U,68591,999,625,.50645817E-3,.18052E-3,0
KUIPER-00290,2026-072V,2026-05-15T03:45:04.968864,15.36471205,.00115303,51.8661,336.9952,258.1290,101.8404,0,U,68592,999,629,.44218992E-3,.15654E-3,0
KUIPER-00293,2026-072W,2026-05-15T06:00:02.000160,15.22607395,.00114445,51.8731,337.0338,278.6313,342.3698,0,U,68593,999,451,-.74110769E-1,-.1592981E-1,0
KUIPER-00294,2026-072X,2026-05-14T07:20:26.672064,15.36532893,.00094254,51.8692,341.0724,260.8394,99.1526,0,U,68594,999,616,.55299993E-3,.19712E-3,0
KUIPER-00296,2026-072Y,2026-05-15T00:11:49.224768,15.37423076,.00073897,51.8714,337.5399,265.1733,94.8410,0,U,68595,999,627,.47530762E-3,.17374E-3,0
KUIPER-00297,2026-072Z,2026-05-15T06:00:02.000160,15.27544863,.00096517,51.8672,336.9301,266.3757,80.8060,0,U,68596,999,293,-.94406735E-3,-.26097E-3,0
KUIPER-00300,2026-072AA,2026-05-15T06:00:02.000160,15.35036960,.00075674,51.8695,336.3236,259.9499,22.4094,0,U,68597,999,562,-.53712075E-3,-.18893E-3,0
KUIPER-00301,2026-072AB,2026-05-14T22:42:17.782560,15.37364162,.00090956,51.8668,337.8554,261.9641,98.0313,0,U,68598,999,626,.68535306E-3,.25215E-3,0
KUIPER-00304,2026-072AC,2026-05-13T07:46:19.115904,15.37080276,.00094555,51.8683,345.7386,255.1968,104.7971,0,U,68599,999,601,.41371306E-3,.14904E-3,0
KUIPER-00317,2026-072AD,2026-05-14T22:37:33.998304,15.37384092,.0008046,51.8717,337.8482,253.5323,106.4780,0,U,68600,999,626,.61637708E-3,.22638E-3,0
KUIPER-00320,2026-072AE,2026-05-14T23:11:21.218784,15.36151358,.00130746,51.8620,337.9688,260.5096,99.4412,0,U,68601,999,626,.65923353E-3,.23324E-3,0
STARLINK-37135,2026-073A,2026-05-15T01:50:09.882528,15.75185460,.00058679,97.2813,334.0680,46.9192,313.2564,0,U,68602,999,600,.92936316E-3,.140888E-2,0
STARLINK-37189,2026-073B,2026-05-15T02:40:28.015104,15.75174094,.00027689,97.2833,334.1732,60.8280,299.3262,0,U,68603,999,601,.84239864E-3,.127337E-2,0
