KUIPER-00189            
1 68574U 26072B   26135.25002315 -.00035308  00000+0 -44063-2 0  9991
2 68574  51.8988 343.1857 0000650 193.2860 207.2541 14.81970039  5527
KUIPER-00192            
1 68575U 26072C   26135.25002315 -.00034610  00000+0 -28797-2 0  9993
2 68575  51.9181 339.3323 0005424 287.3308  12.9552 14.98152799  5936
KUIPER-00193            
1 68576U 26072D   26134.00712196  .00017558  00000+0  46748-3 0  9998
2 68576  51.8783 342.1010 0003747 231.9231 128.1419 15.38272913  6125
KUIPER-00194            
1 68577U 26072E   26135.25002315 -.00037487  00000+0 -23596-2 0  9992
2 68577  51.8894 337.7614 0003077 249.4017  91.0819 15.08651236  4992
KUIPER-00229            
1 68578U 26072F   26135.25002315 -.00087334  00000+0 -94420-2 0  9993
2 68578  51.8965 340.8658 0008442 277.9124   3.4894 14.88284697  5835
KUIPER-00230            
1 68579U 26072G   26134.00083895  .00024181  00000+0  65970-3 0  9996
2 68579  51.8771 342.0572 0002053 249.8506 110.2260 15.37308207  6120
KUIPER-00231            
1 68580U 26072H   26133.86742782  .00019340  00000+0  50508-3 0  9990
2 68580  51.8769 342.6665 0002335 224.4891 135.5909 15.38801624  6107
KUIPER-00234            
1 68581U 26072J   26135.25002315 -.00664111  00000+0 -38125-1 0  9990
2 68581  51.8884 337.1868 0002630 304.2858 238.5123 15.14406548  3545
KUIPER-00236            
1 68582U 26072K   26133.61274577  .00014778  00000+0  41859-3 0  9996
2 68582  51.8772 343.9598 0002622 206.6669 153.4183 15.36487396  6068
KUIPER-00244            
1 68583U 26072L   26134.00082942  .00031492  00000+0  82059-3 0  9993
2 68583  51.8767 342.0618 0002923 240.9192 119.1503 15.38580236  6123
KUIPER-00253            
1 68584U 26072M   26134.59809086  .00024324  00000+0  64677-3 0  9996
2 68584  51.8730 339.3023 0004005 244.8352 115.2220 15.38094887  6212
KUIPER-00254            
1 68585U 26072N   26135.25002315 -.01188378  00000+0 -44421-1 0  9997
2 68585  51.8769 336.3966 0007248 264.7111 330.3718 15.29951740  5439
KUIPER-00263            
1 68586U 26072P   26133.60893224  .00015997  00000+0  43755-3 0  9996
2 68586  51.8779 343.9343 0001332 194.2371 165.8578 15.37513676  6063
KUIPER-00269            
1 68587U 26072Q   26133.87869624  .00016769  00000+0  44726-3 0  9990
2 68587  51.8765 342.7353 0003765 232.9803 127.0840 15.38254796  6102
KUIPER-00272            
1 68588U 26072R   26135.25002315 -.00067815  00000+0 -61579-2 0  9995
2 68588  51.8969 339.3441 0006412 276.0985 242.7632 14.95084166  5838
KUIPER-00285            
1 68589U 26072S   26134.27544133  .00021539  00000+0  57511-3 0  9999
2 68589  51.8754 340.8917 0006224 249.0157 111.0165 15.38032020  6164
KUIPER-00286            
1 68590U 26072T   26135.17551431  .00017945  00000+0  47564-3 0  9993
2 68590  51.8748 336.4250 0003500 247.6529 112.4087 15.38396308  6307
KUIPER-00289            
1 68591U 26072U   26134.89572717  .00018052  00000+0  50646-3 0  9997
2 68591  51.8662 338.2662 0010536 267.1094  92.8686 15.36584336  6259
KUIPER-00290            
1 68592U 26072V   26135.15630751  .00015654  00000+0  44219-3 0  9995
2 68592  51.8661 336.9952 0011530 258.1290 101.8404 15.36471205  6292
KUIPER-00293            
1 68593U 26072W   26135.25002315 -.01592981  00000+0 -74111-1 0  9994
2 68593  51.8731 337.0338 0011444 278.6313 342.3698 15.22607395  4514
KUIPER-00294            
1 68594U 26072X   26134.30586426  .00019712  00000+0  55300-3 0  9994
2 68594  51.8692 341.0724 0009425 260.8394  99.1526 15.36532893  6168
KUIPER-00296            
1 68595U 26072Y   26135.00820862  .00017374  00000+0  47531-3 0  9997
2 68595  51.8714 337.5399 0007389 265.1733  94.8410 15.37423076  6273
KUIPER-00297            
1 68596U 26072Z   26135.25002315 -.00026097  00000+0 -94407-3 0  9998
2 68596  51.8672 336.9301 0009651 266.3757  80.8060 15.27544863  2938
KUIPER-00300            
1 68597U 26072AA  26135.25002315 -.00018893  00000+0 -53712-3 0  9998
2 68597  51.8695 336.3236 0007567 259.9499  22.4094 15.35036960  5621
KUIPER-00301            
1 68598U 26072AB  26134.94603915  .00025215  00000+0  68535-3 0  9990
2 68598  51.8668 337.8554 0009095 261.9641  98.0313 15.37364162  6265
KUIPER-00304            
1 68599U 26072AC  26133.32383236  .00014904  00000+0  41371-3 0  9995
2 68599  51.8683 345.7386 0009455 255.1968 104.7971 15.37080276  6010
KUIPER-00317            
1 68600U 26072AD  26134.94275461  .00022638  00000+0  61638-3 0  9998
2 68600  51.8717 337.8482 0008046 253.5323 106.4780 15.37384092  6269
KUIPER-00320            
1 68601U 26072AE  26134.96621781  .00023324  00000+0  65923-3 0  9995
2 68601  51.8620 337.9688 0013074 260.5096  99.4412 15.36151358  6263
STARLINK-37135          
1 68602U 26073A   26135.07650327  .00140888  00000+0  92936-3 0  9997
2 68602  97.2813 334.0680 0005867  46.9192 313.2564 15.75185460  6007
STARLINK-37189          
1 68603U 26073B   26135.11143536  .00127337  00000+0  84240-3 0  9995
2 68603  97.2833 334.1732 0002768  60.8280 299.3262 15.75174094  6010
